start=new Date('2022-08-09T00:00:00.000Z').valueOf();
sats=[{"DECAY_DATE":null,"PERIOD":"95.591","OBJECT_ID":"2020-057BK","INCLINATION":"53.0535","SEMIMAJOR_AXIS":"6925.317","CLASSIFICATION_TYPE":"U","OBJECT_TYPE":"PAYLOAD","MEAN_ANOMALY":"289.5062","NORAD_CAT_ID":"46174","ARG_OF_PERICENTER":"70.6106","MEAN_MOTION_DOT":"0.00004159","ECCENTRICITY":"0.00016590","OBJECT_NAME":"STARLINK-1641","GP_ID":"209858504","EPOCH":"2022-08-08T21:10:26.997024","APOAPSIS":"548.331","MEAN_MOTION_DDOT":"0.0000000000000","RA_OF_ASC_NODE":"72.0880","LAUNCH_DATE":"2020-08-18","EPHEMERIS_TYPE":"0","PERIAPSIS":"546.033","COUNTRY_CODE":"US","MEAN_ELEMENT_THEORY":"SGP4","CENTER_NAME":"EARTH","MEAN_MOTION":"15.06410215","SITE":"AFETR","RCS_SIZE":"LARGE","TLE_LINE2":"2 46174  53.0535  72.0880 0001659  70.6106 289.5062 15.06410215108793","FILE":"3532305","BSTAR":"0.00029785000000","REF_FRAME":"TEME","ELEMENT_SET_NO":"999","TLE_LINE1":"1 46174U 20057BK  22220.88225691  .00004159  00000-0  29785-3 0  9998","REV_AT_EPOCH":"10879","TIME_SYSTEM":"UTC"},{"LAUNCH_DATE":"2020-09-03","EPHEMERIS_TYPE":"0","RA_OF_ASC_NODE":"87.0472","MEAN_MOTION_DDOT":"0.0000000000000","APOAPSIS":"548.461","EPOCH":"2022-08-08T21:27:01.944000","GP_ID":"209860015","OBJECT_NAME":"STARLINK-1734","ECCENTRICITY":"0.00018590","MEAN_MOTION_DOT":"0.00002417","ARG_OF_PERICENTER":"71.5428","NORAD_CAT_ID":"46325","OBJECT_TYPE":"PAYLOAD","MEAN_ANOMALY":"288.5763","CLASSIFICATION_TYPE":"U","SEMIMAJOR_AXIS":"6925.309","INCLINATION":"53.0559","OBJECT_ID":"2020-062A","PERIOD":"95.591","DECAY_DATE":null,"TIME_SYSTEM":"UTC","REV_AT_EPOCH":"10828","TLE_LINE1":"1 46325U 20062A   22220.89377250  .00002417  00000-0  18107-3 0  9993","ELEMENT_SET_NO":"999","BSTAR":"0.00018107000000","FILE":"3532305","REF_FRAME":"TEME","TLE_LINE2":"2 46325  53.0559  87.0472 0001859  71.5428 288.5763 15.06413018108284","RCS_SIZE":"LARGE","MEAN_MOTION":"15.06413018","SITE":"AFETR","MEAN_ELEMENT_THEORY":"SGP4","CENTER_NAME":"EARTH","COUNTRY_CODE":"US","PERIAPSIS":"545.886"},{"RCS_SIZE":"LARGE","MEAN_ELEMENT_THEORY":"SGP4","CENTER_NAME":"EARTH","MEAN_MOTION":"15.06407944","SITE":"AFETR","COUNTRY_CODE":"US","PERIAPSIS":"545.880","REV_AT_EPOCH":"10712","TIME_SYSTEM":"UTC","ELEMENT_SET_NO":"999","TLE_LINE1":"1 46326U 20062B   22220.22804011  .00004845  00000-0  34387-3 0  9996","FILE":"3532160","REF_FRAME":"TEME","BSTAR":"0.00034387000000","TLE_LINE2":"2 46326  53.0556 135.2754 0001891  66.6498 293.4689 15.06407944107124","ECCENTRICITY":"0.00018910","ARG_OF_PERICENTER":"66.6498","NORAD_CAT_ID":"46326","MEAN_MOTION_DOT":"0.00004845","SEMIMAJOR_AXIS":"6925.324","MEAN_ANOMALY":"293.4689","OBJECT_TYPE":"PAYLOAD","CLASSIFICATION_TYPE":"U","OBJECT_ID":"2020-062B","PERIOD":"95.592","DECAY_DATE":null,"INCLINATION":"53.0556","LAUNCH_DATE":"2020-09-03","EPHEMERIS_TYPE":"0","RA_OF_ASC_NODE":"135.2754","APOAPSIS":"548.499","MEAN_MOTION_DDOT":"0.0000000000000","GP_ID":"209836783","OBJECT_NAME":"STARLINK-1654","EPOCH":"2022-08-08T05:28:22.665504"},{"REV_AT_EPOCH":"10702","TIME_SYSTEM":"UTC","TLE_LINE2":"2 46327  53.0534 132.5384 0001498  83.9951 276.1209 15.06406531107025","ELEMENT_SET_NO":"999","TLE_LINE1":"1 46327U 20062C   22220.78089826  .00003433  00000-0  24924-3 0  9995","BSTAR":"0.00024924000000","FILE":"3532305","REF_FRAME":"TEME","MEAN_ELEMENT_THEORY":"SGP4","CENTER_NAME":"EARTH","SITE":"AFETR","MEAN_MOTION":"15.06406531","RCS_SIZE":"LARGE","PERIAPSIS":"546.156","COUNTRY_CODE":"US","RA_OF_ASC_NODE":"132.5384","EPHEMERIS_TYPE":"0","LAUNCH_DATE":"2020-09-03","GP_ID":"209859015","OBJECT_NAME":"STARLINK-1673","EPOCH":"2022-08-08T18:44:29.609664","APOAPSIS":"548.231","MEAN_MOTION_DDOT":"0.0000000000000","ARG_OF_PERICENTER":"83.9951","NORAD_CAT_ID":"46327","MEAN_MOTION_DOT":"0.00003433","ECCENTRICITY":"0.00014980","OBJECT_ID":"2020-062C","PERIOD":"95.592","DECAY_DATE":null,"INCLINATION":"53.0534","SEMIMAJOR_AXIS":"6925.329","MEAN_ANOMALY":"276.1209","OBJECT_TYPE":"PAYLOAD","CLASSIFICATION_TYPE":"U"},{"REV_AT_EPOCH":"10729","TIME_SYSTEM":"UTC","TLE_LINE2":"2 46328  53.0552 112.9427 0002277  74.7536 285.3705 15.06410239107291","ELEMENT_SET_NO":"999","TLE_LINE1":"1 46328U 20062D   22220.69427571  .00002273  00000-0  17139-3 0  9990","BSTAR":"0.00017139000000","FILE":"3532305","REF_FRAME":"TEME","CENTER_NAME":"EARTH","MEAN_ELEMENT_THEORY":"SGP4","SITE":"AFETR","MEAN_MOTION":"15.06410239","RCS_SIZE":"LARGE","PERIAPSIS":"545.605","COUNTRY_CODE":"US","RA_OF_ASC_NODE":"112.9427","EPHEMERIS_TYPE":"0","LAUNCH_DATE":"2020-09-03","GP_ID":"209859267","OBJECT_NAME":"STARLINK-1686","EPOCH":"2022-08-08T16:39:45.421344","APOAPSIS":"548.759","MEAN_MOTION_DDOT":"0.0000000000000","ARG_OF_PERICENTER":"74.7536","NORAD_CAT_ID":"46328","MEAN_MOTION_DOT":"0.00002273","ECCENTRICITY":"0.00022770","OBJECT_ID":"2020-062D","DECAY_DATE":null,"PERIOD":"95.591","INCLINATION":"53.0552","SEMIMAJOR_AXIS":"6925.317","OBJECT_TYPE":"PAYLOAD","MEAN_ANOMALY":"285.3705","CLASSIFICATION_TYPE":"U"},{"GP_ID":"209859517","OBJECT_NAME":"STARLINK-1695","EPOCH":"2022-08-08T19:03:03.725568","APOAPSIS":"548.476","MEAN_MOTION_DDOT":"0.0000000000000","RA_OF_ASC_NODE":"112.4868","LAUNCH_DATE":"2020-09-03","EPHEMERIS_TYPE":"0","OBJECT_ID":"2020-062E","PERIOD":"95.592","DECAY_DATE":null,"INCLINATION":"53.0554","SEMIMAJOR_AXIS":"6925.322","MEAN_ANOMALY":"288.6558","OBJECT_TYPE":"PAYLOAD","CLASSIFICATION_TYPE":"U","ARG_OF_PERICENTER":"71.4633","NORAD_CAT_ID":"46329","MEAN_MOTION_DOT":"0.00000923","ECCENTRICITY":"0.00018620","TLE_LINE2":"2 46329  53.0554 112.4868 0001862  71.4633 288.6558 15.06408688107308","TLE_LINE1":"1 46329U 20062E   22220.79379312  .00000923  00000-0  80828-4 0  9997","ELEMENT_SET_NO":"999","FILE":"3532305","BSTAR":"0.00008082800000","REF_FRAME":"TEME","REV_AT_EPOCH":"10730","TIME_SYSTEM":"UTC","PERIAPSIS":"545.897","COUNTRY_CODE":"US","MEAN_ELEMENT_THEORY":"SGP4","CENTER_NAME":"EARTH","MEAN_MOTION":"15.06408688","SITE":"AFETR","RCS_SIZE":"LARGE"},{"PERIAPSIS":"545.911","COUNTRY_CODE":"US","MEAN_ELEMENT_THEORY":"SGP4","CENTER_NAME":"EARTH","SITE":"AFETR","MEAN_MOTION":"15.06409803","RCS_SIZE":"LARGE","TLE_LINE2":"2 46330  53.0551 112.8203 0001838  78.1844 281.9351 15.06409803107302","ELEMENT_SET_NO":"999","TLE_LINE1":"1 46330U 20062F   22220.71638626  .00003120  00000-0  22824-3 0  9990","BSTAR":"0.00022824000000","FILE":"3532305","REF_FRAME":"TEME","REV_AT_EPOCH":"10730","TIME_SYSTEM":"UTC","OBJECT_ID":"2020-062F","PERIOD":"95.592","DECAY_DATE":null,"INCLINATION":"53.0551","SEMIMAJOR_AXIS":"6925.319","OBJECT_TYPE":"PAYLOAD","MEAN_ANOMALY":"281.9351","CLASSIFICATION_TYPE":"U","ARG_OF_PERICENTER":"78.1844","NORAD_CAT_ID":"46330","MEAN_MOTION_DOT":"0.00003120","ECCENTRICITY":"0.00018380","GP_ID":"209858266","OBJECT_NAME":"STARLINK-1710","EPOCH":"2022-08-08T17:11:35.772864","APOAPSIS":"548.456","MEAN_MOTION_DDOT":"0.0000000000000","RA_OF_ASC_NODE":"112.8203","EPHEMERIS_TYPE":"0","LAUNCH_DATE":"2020-09-03"},{"RA_OF_ASC_NODE":"132.6630","LAUNCH_DATE":"2020-09-03","EPHEMERIS_TYPE":"0","GP_ID":"209858516","OBJECT_NAME":"STARLINK-1719","EPOCH":"2022-08-08T18:02:01.000608","APOAPSIS":"548.315","MEAN_MOTION_DDOT":"0.0000000000000","ARG_OF_PERICENTER":"75.9728","NORAD_CAT_ID":"46331","MEAN_MOTION_DOT":"0.00003154","ECCENTRICITY":"0.00016720","OBJECT_ID":"2020-062G","PERIOD":"95.591","DECAY_DATE":null,"INCLINATION":"53.0539","SEMIMAJOR_AXIS":"6925.292","MEAN_ANOMALY":"284.1446","OBJECT_TYPE":"PAYLOAD","CLASSIFICATION_TYPE":"U","REV_AT_EPOCH":"10702","TIME_SYSTEM":"UTC","TLE_LINE2":"2 46331  53.0539 132.6630 0001672  75.9728 284.1446 15.06418294107028","TLE_LINE1":"1 46331U 20062G   22220.75140047  .00003154  00000-0  23045-3 0  9993","ELEMENT_SET_NO":"999","FILE":"3532305","BSTAR":"0.00023045000000","REF_FRAME":"TEME","CENTER_NAME":"EARTH","MEAN_ELEMENT_THEORY":"SGP4","SITE":"AFETR","MEAN_MOTION":"15.06418294","RCS_SIZE":"LARGE","PERIAPSIS":"546.000","COUNTRY_CODE":"US"},{"EPHEMERIS_TYPE":"0","LAUNCH_DATE":"2020-09-03","RA_OF_ASC_NODE":"132.6322","MEAN_MOTION_DDOT":"0.0000000000000","APOAPSIS":"548.489","EPOCH":"2022-08-08T18:17:56.442912","OBJECT_NAME":"STARLINK-1721","GP_ID":"209859766","ECCENTRICITY":"0.00018770","MEAN_MOTION_DOT":"0.00002383","NORAD_CAT_ID":"46332","ARG_OF_PERICENTER":"76.1972","CLASSIFICATION_TYPE":"U","OBJECT_TYPE":"PAYLOAD","MEAN_ANOMALY":"283.9226","SEMIMAJOR_AXIS":"6925.324","INCLINATION":"53.0549","PERIOD":"95.592","DECAY_DATE":null,"OBJECT_ID":"2020-062H","TIME_SYSTEM":"UTC","REV_AT_EPOCH":"10702","FILE":"3532305","REF_FRAME":"TEME","BSTAR":"0.00017878000000","ELEMENT_SET_NO":"999","TLE_LINE1":"1 46332U 20062H   22220.76245883  .00002383  00000-0  17878-3 0  9999","TLE_LINE2":"2 46332  53.0549 132.6322 0001877  76.1972 283.9226 15.06407888107029","RCS_SIZE":"LARGE","MEAN_MOTION":"15.06407888","SITE":"AFETR","CENTER_NAME":"EARTH","MEAN_ELEMENT_THEORY":"SGP4","COUNTRY_CODE":"US","PERIAPSIS":"545.889"},{"MEAN_MOTION_DDOT":"0.0000000000000","APOAPSIS":"548.579","EPOCH":"2022-08-08T04:19:19.616160","OBJECT_NAME":"STARLINK-1723","GP_ID":"209830824","EPHEMERIS_TYPE":"0","LAUNCH_DATE":"2020-09-03","RA_OF_ASC_NODE":"135.2432","CLASSIFICATION_TYPE":"U","MEAN_ANOMALY":"289.9680","OBJECT_TYPE":"PAYLOAD","SEMIMAJOR_AXIS":"6925.345","INCLINATION":"53.0550","PERIOD":"95.592","DECAY_DATE":null,"OBJECT_ID":"2020-062J","ECCENTRICITY":"0.00019770","MEAN_MOTION_DOT":"0.00001017","NORAD_CAT_ID":"46333","ARG_OF_PERICENTER":"70.1521","FILE":"3532128","BSTAR":"0.00008716100000","REF_FRAME":"TEME","ELEMENT_SET_NO":"999","TLE_LINE1":"1 46333U 20062J   22220.18008815  .00001017  00000-0  87161-4 0  9994","TLE_LINE2":"2 46333  53.0550 135.2432 0001977  70.1521 289.9680 15.06401198106935","TIME_SYSTEM":"UTC","REV_AT_EPOCH":"10693","COUNTRY_CODE":"US","PERIAPSIS":"545.841","RCS_SIZE":"LARGE","MEAN_MOTION":"15.06401198","SITE":"AFETR","CENTER_NAME":"EARTH","MEAN_ELEMENT_THEORY":"SGP4"}];
